[{"OBJECT_NAME":"HAWK-A","OBJECT_ID":"2018-099H","EPOCH":"2026-03-09T16:13:51.062880","MEAN_MOTION":15.23231043,"ECCENTRICITY":0.00342596,"INCLINATION":97.4051,"RA_OF_ASC_NODE":122.2425,"ARG_OF_PERICENTER":275.5523,"MEAN_ANOMALY":84.1807,"EPHEMERIS_TYPE":0,"CLASSIFICATION_TYPE":"U","NORAD_CAT_ID":43765,"ELEMENT_SET_NO":999,"REV_AT_EPOCH":39794,"BSTAR":0.00036104215,"MEAN_MOTION_DOT":8.617e-5,"MEAN_MOTION_DDOT":0},{"OBJECT_NAME":"Z-SAT","OBJECT_ID":"2021-102E","EPOCH":"2026-03-09T23:34:39.244224","MEAN_MOTION":15.17426546,"ECCENTRICITY":0.00156122,"INCLINATION":97.3462,"RA_OF_ASC_NODE":107.3084,"ARG_OF_PERICENTER":229.8431,"MEAN_ANOMALY":130.1437,"EPHEMERIS_TYPE":0,"CLASSIFICATION_TYPE":"U","NORAD_CAT_ID":49399,"ELEMENT_SET_NO":999,"REV_AT_EPOCH":23839,"BSTAR":0.00028947153,"MEAN_MOTION_DOT":5.742e-5,"MEAN_MOTION_DDOT":0}]
